TDRS 3                  
1 19548U 88091B   17284.91361927 -.00000312  00000-0  00000-0 0  9990
2 19548  14.4479   6.7657 0035165 307.1275 333.2315  1.00264411 93612
HST                     
1 20580U 90037B   17284.50534257  .00000844  00000-0  41047-4 0  9993
2 20580  28.4702 318.8605 0002658 350.1525 125.3719 15.08882781307863
TDRS 5                  
1 21639U 91054B   17284.67905615  .00000074  00000-0  00000-0 0  9992
2 21639  14.4451  20.1799 0018885 339.5497  97.4807  1.00273114 95929
TDRS 6                  
1 22314U 93003B   17284.91256081 -.00000305  00000-0  00000-0 0  9990
2 22314  13.9847  23.1333 0005476 263.8334  16.0642  1.00263735 90658
TDRS 7                  
1 23613U 95035B   17285.07473749 -.00000210  00000-0  00000+0 0  9994
2 23613  15.0134  13.8740 0026055 359.6156 118.8345  1.00266957 81361
ISS (ZARYA)             
1 25544U 98067A   17285.52590244  .00004083  00000-0  68831-4 0  9999
2 25544  51.6421 173.3803 0004563  15.9037  48.4830 15.54154671 80003
LANDSAT 7               
1 25682U 99020A   17285.27604264  .00000123  00000-0  37264-4 0  9999
2 25682  98.1976 354.7407 0001017  64.9574 295.1722 14.57109913983647
TERRA                   
1 25994U 99068A   17288.44535476  .00000168  00000-0  37297-4 0  9992
2 25994  98.1989   1.7124 0000757  72.1783 288.0110 14.57123886948182
TDRS 8                  
1 26388U 00034A   17284.84711193 -.00000244  00000-0  00000+0 0  9990
2 26388   7.6836  54.8320 0007974 212.8460 147.1301  1.00269298 63385
EO-1                    
1 26619U 00075A   17285.16652583  .00000060  00000-0  19772-4 0  9991
2 26619  97.8291 308.7457 0010861  92.7088 267.5387 14.64407083900651
TIMED                   
1 26998U 01055B   17284.87019612  .00000238  00000-0  29972-4 0  9997
2 26998  74.0708  82.9384 0000441 339.3997  20.7165 14.87944731858839
TDRS 9                  
1 27389U 02011A   17285.17514708 -.00000116  00000-0  00000+0 0  9997
2 27389   5.4843  77.6267 0018013 233.7698 120.6850  1.00271938 58658
AQUA                    
1 27424U 02022A   17288.46445486  .00000229  00000-0  50842-4 0  9998
2 27424  98.2101 227.9996 0001816  80.9101 279.2816 14.57114340821793
TDRS 10                 
1 27566U 02055A   17284.58814263  .00000063  00000-0  00000-0 0  9996
2 27566   5.2316  57.8684 0008795 207.5520 152.4602  1.00265786 54445
SORCE                   
1 27651U 03004A   17284.49882933  .00000312  00000-0  46903-4 0  9998
2 27651  39.9967  33.4960 0024275 331.2379  28.7071 14.88743615798128
AURA                    
1 28376U 04026A   17285.17389626  .00000189  00000-0  51999-4 0  9998
2 28376  98.2131 226.9266 0001971  80.5746 279.5675 14.57109922704353
SWIFT                   
1 28485U 04047A   17285.40020237  .00001418  00000-0  68482-4 0  9999
2 28485  20.5573  35.2337 0011119 279.4450  80.4727 15.03884131705877
THEMIS A                
1 30580U 07004A   17285.25061714 -.00000330  00000-0  00000+0 0  9992
2 30580   7.6690 180.0331 8341781 154.7256 298.8106  0.87743325 38097
THEMIS D                
1 30797U 07004D   17283.51829858 -.00000377  00000-0  00000+0 0  9991
2 30797   4.7966 139.0143 8126998 210.9828  53.6705  1.06412727 38742
THEMIS E                
1 30798U 07004E   17283.81349692 -.00000457  00000-0  00000+0 0  9997
2 30798   5.1258 167.1492 8317525 178.7656 187.9032  0.87683930 38578
AIM                     
1 31304U 07015A   17285.14913282  .00001574  00000-0  95032-4 0  9997
2 31304  98.0030 109.6875 0006523  96.6959 263.5013 15.12302803572615
FGRST (GLAST)           
1 33053U 08029A   17285.17147406  .00000732  00000-0  25465-4 0  9994
2 33053  25.5827 287.5736 0012304 194.0096 166.0098 15.10974621515032
WISE                    
1 36119U 09071A   17285.16216930  .00001640  00000-0  61701-4 0  9998
2 36119  97.4421 312.9499 0001024 243.1375 116.9759 15.28579726434144
TDRS 11                 
1 39070U 13004A   17285.32874864  .00000069  00000-0  00000+0 0  9996
2 39070   5.2430 328.5653 0009719 284.6747  75.0774  1.00267957 17208
TDRS 12                 
1 39504U 14004A   17284.98941488 -.00000294  00000-0  00000+0 0  9998
2 39504   5.8532 335.9681 0003644 292.9870  66.8641  1.00265118 13666
GPM-CORE                
1 39574U 14009C   17285.38678412  .00006735  00000-0  10184-3 0  9992
2 39574  65.0085 241.3061 0010701 282.7543  77.2407 15.55539112205754
MMS 1                   
1 40482U 15011A   17282.01388889 -.00000139  00000-0  00000+0 0  9994
2 40482  22.3344 308.9561 9003193 159.3858  31.4644  0.35519717  8068
MMS 2                   
1 40483U 15011B   17278.97569444  .00000105  00000-0  00000+0 0  9995
2 40483  22.4145 308.9796 9003803 159.2387   3.3379  0.35518562  8041
MMS 3                   
1 40484U 15011C   17282.74375000 -.00000148  00000-0  00000+0 0  9997
2 40484  22.3518 308.9389 9015804 159.3950 124.9303  0.35494681  8057
MMS 4                   
1 40485U 15011D   17282.01041667 -.00000138  00000-0  00000+0 0  9996
2 40485  22.3383 308.9544 9017650 159.3329  31.3381  0.35489454  8040
